ONEWEB-0216             
1 48801U 21045AL  23333.40050065  .00000040  00000+0  71131-4 0  9997
2 48801  87.9001  84.5141 0001585 101.6915 258.4393 13.15552469121923
ONEWEB-0239             
1 48802U 21045AM  23333.40525745  .00000028  00000+0  40380-4 0  9998
2 48802  87.9007  84.4709 0001370 139.9127 220.2105 13.15548525121960
ONEWEB-0249             
1 48967U 21060A   23333.31733136 -.00000013  00000+0 -66842-4 0  9999
2 48967  87.9093  54.0405 0001680 102.4766 257.6553 13.16594878117128
ONEWEB-0250             
1 48968U 21060B   23333.24555019  .00000133  00000+0  31300-3 0  9995
2 48968  87.9091  54.0394 0001600 114.6288 245.5010 13.16596556117095
ONEWEB-0252             
1 48970U 21060D   23333.27300808  .00000085  00000+0  18914-3 0  9997
2 48970  87.9089  54.0422 0001542  97.7884 262.3422 13.16594197117166
ONEWEB-0253             
1 48971U 21060E   23333.26244367  .00000054  00000+0  10705-3 0  9990
2 48971  87.9017  54.0741 0001366 107.1818 252.9463 13.16594295117090
ONEWEB-0254             
1 48972U 21060F   23333.27089461  .00000081  00000+0  17864-3 0  9997
2 48972  87.9091  54.0323 0001463 110.8996 249.2292 13.16595049117092
ONEWEB-0255             
1 48973U 21060G   23333.76487915  .00000130  00000+0  30713-3 0  9991
2 48973  87.9092  53.9699 0001705 104.8996 255.2324 13.16593648118525
